0 FENGYUN 1C DEB
1 35244U 99025DRC 13283.20257706  .00000941  00000-0  65276-3 0  3334
2 35244 099.1754 277.6206 0069015 235.3321 124.1403 14.00379679259204
0 FENGYUN 1C DEB
1 35244U 99025DRC 13287.20367585  .00000987  00000-0  68252-3 0  3354
2 35244 099.1761 281.6367 0068972 224.0370 135.5410 14.00389082259769
0 FENGYUN 1C DEB
1 35244U 99025DRC 13289.20421548  .00001008  00000-0  69667-3 0  3363
2 35244 099.1766 283.6456 0068959 218.3740 141.2603 14.00393921260045
0 FENGYUN 1C DEB
1 35244U 99025DRC 13290.77606742  .00001324  00000-0  87567-3 0  3379
2 35244 099.1798 285.2269 0069051 213.5409 146.1844 14.00400732260267
0 FENGYUN 1C DEB
1 35244U 99025DRC 13292.20501452  .00001042  00000-0  71883-3 0  3383
2 35244 099.1769 286.6578 0069053 210.2239 149.5068 14.00401415260466
0 FENGYUN 1C DEB
1 35244U 99025DRC 13295.20579972  .00001078  00000-0  74239-3 0  3396
2 35244 099.1782 289.6717 0069177 201.7122 158.1311 14.00409125260881
